start=new Date('2022-03-03T00:00:00.000Z').valueOf();
sats=[{"PERIOD":"95.436","NORAD_CAT_ID":"49415","MEAN_MOTION_DDOT":"0.0000000000000","EPHEMERIS_TYPE":"0","FILE":"3341695","OBJECT_TYPE":"PAYLOAD","ECCENTRICITY":"0.00021970","TLE_LINE1":"1 49415U 21104H   22061.91667824 -.00066196  00000-0 -41767-2 0  9992","PERIAPSIS":"538.151","GP_ID":"197660320","CLASSIFICATION_TYPE":"U","RA_OF_ASC_NODE":"328.2158","ELEMENT_SET_NO":"999","MEAN_ELEMENT_THEORY":"SGP4","SITE":"AFETR","ARG_OF_PERICENTER":"43.9548","TIME_SYSTEM":"UTC","MEAN_MOTION_DOT":"-0.00066196","REV_AT_EPOCH":"360","MEAN_ANOMALY":"91.8227","RCS_SIZE":"LARGE","SEMIMAJOR_AXIS":"6917.806","MEAN_MOTION":"15.08864257","BSTAR":"-0.00417670000000","DECAY_DATE":null,"COUNTRY_CODE":"US","EPOCH":"2022-03-02T22:00:00.999936","INCLINATION":"53.2190","CENTER_NAME":"EARTH","TLE_LINE2":"2 49415  53.2190 328.2158 0002197  43.9548  91.8227 15.08864257  3600","APOAPSIS":"541.191","LAUNCH_DATE":"2021-11-13","REF_FRAME":"TEME","OBJECT_NAME":"STARLINK-3159","OBJECT_ID":"2021-104H"},{"NORAD_CAT_ID":"49416","PERIOD":"95.436","MEAN_MOTION_DDOT":"0.0000000000000","EPHEMERIS_TYPE":"0","FILE":"3341695","OBJECT_TYPE":"PAYLOAD","TLE_LINE1":"1 49416U 21104J   22061.91667824 -.00040830  00000-0 -25602-2 0  9990","PERIAPSIS":"537.831","ECCENTRICITY":"0.00026740","GP_ID":"197661070","CLASSIFICATION_TYPE":"U","ELEMENT_SET_NO":"999","RA_OF_ASC_NODE":"338.2097","MEAN_ELEMENT_THEORY":"SGP4","SITE":"AFETR","ARG_OF_PERICENTER":"48.7973","TIME_SYSTEM":"UTC","MEAN_MOTION_DOT":"-0.00040830","REV_AT_EPOCH":"360","MEAN_ANOMALY":"71.9801","RCS_SIZE":"LARGE","MEAN_MOTION":"15.08861252","SEMIMAJOR_AXIS":"6917.815","BSTAR":"-0.00256020000000","DECAY_DATE":null,"COUNTRY_CODE":"US","EPOCH":"2022-03-02T22:00:00.999936","INCLINATION":"53.2165","CENTER_NAME":"EARTH","TLE_LINE2":"2 49416  53.2165 338.2097 0002674  48.7973  71.9801 15.08861252  3600","APOAPSIS":"541.530","LAUNCH_DATE":"2021-11-13","REF_FRAME":"TEME","OBJECT_NAME":"STARLINK-3133","OBJECT_ID":"2021-104J"},{"TLE_LINE1":"1 49417U 21104K   22061.88804309 -.00001436  00000-0 -72130-4 0  9997","PERIAPSIS":"538.577","ECCENTRICITY":"0.00017070","OBJECT_TYPE":"PAYLOAD","EPHEMERIS_TYPE":"0","FILE":"3341695","PERIOD":"95.438","NORAD_CAT_ID":"49417","MEAN_MOTION_DDOT":"0.0000000000000","ARG_OF_PERICENTER":"40.7930","TIME_SYSTEM":"UTC","SITE":"AFETR","RA_OF_ASC_NODE":"328.3428","ELEMENT_SET_NO":"999","MEAN_ELEMENT_THEORY":"SGP4","GP_ID":"197661822","CLASSIFICATION_TYPE":"U","EPOCH":"2022-03-02T21:18:46.922976","INCLINATION":"53.2177","CENTER_NAME":"EARTH","COUNTRY_CODE":"US","DECAY_DATE":null,"MEAN_ANOMALY":"319.3189","RCS_SIZE":"LARGE","SEMIMAJOR_AXIS":"6917.892","MEAN_MOTION":"15.08836073","BSTAR":"-0.00007213000000","MEAN_MOTION_DOT":"-0.00001436","REV_AT_EPOCH":"1717","OBJECT_ID":"2021-104K","APOAPSIS":"540.938","REF_FRAME":"TEME","LAUNCH_DATE":"2021-11-13","OBJECT_NAME":"STARLINK-3154","TLE_LINE2":"2 49417  53.2177 328.3428 0001707  40.7930 319.3189 15.08836073 17171"},{"MEAN_MOTION_DOT":"-0.00070467","REV_AT_EPOCH":"360","MEAN_ANOMALY":"90.5356","RCS_SIZE":"LARGE","SEMIMAJOR_AXIS":"6917.769","MEAN_MOTION":"15.08876530","BSTAR":"-0.00444840000000","DECAY_DATE":null,"COUNTRY_CODE":"US","EPOCH":"2022-03-02T22:00:00.999936","INCLINATION":"53.2156","CENTER_NAME":"EARTH","TLE_LINE2":"2 49418  53.2156 338.2058 0002403  50.2362  90.5356 15.08876530  3606","APOAPSIS":"541.296","LAUNCH_DATE":"2021-11-13","REF_FRAME":"TEME","OBJECT_NAME":"STARLINK-3111","OBJECT_ID":"2021-104L","PERIOD":"95.435","NORAD_CAT_ID":"49418","MEAN_MOTION_DDOT":"0.0000000000000","EPHEMERIS_TYPE":"0","FILE":"3341695","OBJECT_TYPE":"PAYLOAD","PERIAPSIS":"537.971","TLE_LINE1":"1 49418U 21104L   22061.91667824 -.00070467  00000-0 -44484-2 0  9990","ECCENTRICITY":"0.00024030","GP_ID":"197662073","CLASSIFICATION_TYPE":"U","ELEMENT_SET_NO":"999","RA_OF_ASC_NODE":"338.2058","MEAN_ELEMENT_THEORY":"SGP4","SITE":"AFETR","ARG_OF_PERICENTER":"50.2362","TIME_SYSTEM":"UTC"},{"ECCENTRICITY":"0.00022330","TLE_LINE1":"1 49419U 21104M   22061.91667824 -.00022546  00000-0 -14029-2 0  9998","PERIAPSIS":"538.204","OBJECT_TYPE":"PAYLOAD","FILE":"3341695","EPHEMERIS_TYPE":"0","NORAD_CAT_ID":"49419","PERIOD":"95.438","MEAN_MOTION_DDOT":"0.0000000000000","TIME_SYSTEM":"UTC","ARG_OF_PERICENTER":"49.2372","SITE":"AFETR","MEAN_ELEMENT_THEORY":"SGP4","ELEMENT_SET_NO":"999","RA_OF_ASC_NODE":"338.2043","CLASSIFICATION_TYPE":"U","GP_ID":"197660820","CENTER_NAME":"EARTH","EPOCH":"2022-03-02T22:00:00.999936","INCLINATION":"53.2160","COUNTRY_CODE":"US","DECAY_DATE":null,"SEMIMAJOR_AXIS":"6917.884","MEAN_MOTION":"15.08838742","BSTAR":"-0.00140290000000","MEAN_ANOMALY":"151.5349","RCS_SIZE":"LARGE","MEAN_MOTION_DOT":"-0.00022546","REV_AT_EPOCH":"359","OBJECT_ID":"2021-104M","REF_FRAME":"TEME","LAUNCH_DATE":"2021-11-13","OBJECT_NAME":"STARLINK-3120","APOAPSIS":"541.294","TLE_LINE2":"2 49419  53.2160 338.2043 0002233  49.2372 151.5349 15.08838742  3597"},{"SEMIMAJOR_AXIS":"6917.824","MEAN_MOTION":"15.08858390","BSTAR":"-0.00182070000000","MEAN_ANOMALY":"111.2332","RCS_SIZE":"LARGE","MEAN_MOTION_DOT":"-0.00029164","REV_AT_EPOCH":"360","CENTER_NAME":"EARTH","EPOCH":"2022-03-02T22:00:00.999936","INCLINATION":"53.2147","DECAY_DATE":null,"COUNTRY_CODE":"US","LAUNCH_DATE":"2021-11-13","REF_FRAME":"TEME","OBJECT_NAME":"STARLINK-3110","APOAPSIS":"541.304","TLE_LINE2":"2 49420  53.2147 338.2031 0002334  49.5202 111.2332 15.08858390  3606","OBJECT_ID":"2021-104N","FILE":"3341695","EPHEMERIS_TYPE":"0","NORAD_CAT_ID":"49420","PERIOD":"95.436","MEAN_MOTION_DDOT":"0.0000000000000","PERIAPSIS":"538.075","TLE_LINE1":"1 49420U 21104N   22061.91667824 -.00029164  00000-0 -18207-2 0  9995","ECCENTRICITY":"0.00023340","OBJECT_TYPE":"PAYLOAD","MEAN_ELEMENT_THEORY":"SGP4","ELEMENT_SET_NO":"999","RA_OF_ASC_NODE":"338.2031","CLASSIFICATION_TYPE":"U","GP_ID":"197660571","TIME_SYSTEM":"UTC","ARG_OF_PERICENTER":"49.5202","SITE":"AFETR"},{"REV_AT_EPOCH":"359","MEAN_MOTION_DOT":"-0.00037500","BSTAR":"-0.00235010000000","SEMIMAJOR_AXIS":"6917.869","MEAN_MOTION":"15.08843799","RCS_SIZE":"LARGE","MEAN_ANOMALY":"188.4178","DECAY_DATE":null,"COUNTRY_CODE":"US","CENTER_NAME":"EARTH","INCLINATION":"53.2185","EPOCH":"2022-03-02T22:00:00.999936","TLE_LINE2":"2 49421  53.2185 338.1987 0001973  52.3718 188.4178 15.08843799  3599","OBJECT_NAME":"STARLINK-3112","REF_FRAME":"TEME","LAUNCH_DATE":"2021-11-13","APOAPSIS":"541.099","OBJECT_ID":"2021-104P","MEAN_MOTION_DDOT":"0.0000000000000","PERIOD":"95.437","NORAD_CAT_ID":"49421","FILE":"3341695","EPHEMERIS_TYPE":"0","OBJECT_TYPE":"PAYLOAD","PERIAPSIS":"538.369","TLE_LINE1":"1 49421U 21104P   22061.91667824 -.00037500  00000-0 -23501-2 0  9992","ECCENTRICITY":"0.00019730","CLASSIFICATION_TYPE":"U","GP_ID":"197661323","MEAN_ELEMENT_THEORY":"SGP4","ELEMENT_SET_NO":"999","RA_OF_ASC_NODE":"338.1987","SITE":"AFETR","TIME_SYSTEM":"UTC","ARG_OF_PERICENTER":"52.3718"},{"SITE":"AFETR","ARG_OF_PERICENTER":"51.8321","TIME_SYSTEM":"UTC","GP_ID":"197661574","CLASSIFICATION_TYPE":"U","ELEMENT_SET_NO":"999","RA_OF_ASC_NODE":"338.2052","MEAN_ELEMENT_THEORY":"SGP4","OBJECT_TYPE":"PAYLOAD","TLE_LINE1":"1 49422U 21104Q   22061.91667824 -.00022717  00000-0 -14133-2 0  9998","ECCENTRICITY":"0.00024750","PERIAPSIS":"538.006","MEAN_MOTION_DDOT":"0.0000000000000","PERIOD":"95.437","NORAD_CAT_ID":"49422","EPHEMERIS_TYPE":"0","FILE":"3341695","OBJECT_ID":"2021-104Q","TLE_LINE2":"2 49422  53.2162 338.2052 0002475  51.8321 128.9360 15.08849036  3593","APOAPSIS":"541.430","OBJECT_NAME":"STARLINK-3161","LAUNCH_DATE":"2021-11-13","REF_FRAME":"TEME","COUNTRY_CODE":"US","DECAY_DATE":null,"INCLINATION":"53.2162","EPOCH":"2022-03-02T22:00:00.999936","CENTER_NAME":"EARTH","REV_AT_EPOCH":"359","MEAN_MOTION_DOT":"-0.00022717","RCS_SIZE":"LARGE","MEAN_ANOMALY":"128.9360","BSTAR":"-0.00141330000000","MEAN_MOTION":"15.08849036","SEMIMAJOR_AXIS":"6917.853"},{"TLE_LINE2":"2 49423  53.2180 338.1950 0001873  50.2392 230.5089 15.08849813  3593","REF_FRAME":"TEME","LAUNCH_DATE":"2021-11-13","OBJECT_NAME":"STARLINK-3149","APOAPSIS":"541.011","OBJECT_ID":"2021-104R","MEAN_MOTION_DOT":"-0.00022079","REV_AT_EPOCH":"359","SEMIMAJOR_AXIS":"6917.850","MEAN_MOTION":"15.08849813","BSTAR":"-0.00137300000000","MEAN_ANOMALY":"230.5089","RCS_SIZE":"LARGE","DECAY_DATE":null,"COUNTRY_CODE":"US","CENTER_NAME":"EARTH","EPOCH":"2022-03-02T22:00:00.999936","INCLINATION":"53.2180","CLASSIFICATION_TYPE":"U","GP_ID":"197660321","MEAN_ELEMENT_THEORY":"SGP4","ELEMENT_SET_NO":"999","RA_OF_ASC_NODE":"338.1950","SITE":"AFETR","TIME_SYSTEM":"UTC","ARG_OF_PERICENTER":"50.2392","PERIOD":"95.437","NORAD_CAT_ID":"49423","MEAN_MOTION_DDOT":"0.0000000000000","FILE":"3341695","EPHEMERIS_TYPE":"0","OBJECT_TYPE":"PAYLOAD","PERIAPSIS":"538.420","TLE_LINE1":"1 49423U 21104R   22061.91667824 -.00022079  00000-0 -13730-2 0  9992","ECCENTRICITY":"0.00018730"},{"MEAN_MOTION":"15.08853573","SEMIMAJOR_AXIS":"6917.839","BSTAR":"-0.00142460000000","MEAN_ANOMALY":"172.7708","RCS_SIZE":"LARGE","MEAN_MOTION_DOT":"-0.00022898","REV_AT_EPOCH":"359","CENTER_NAME":"EARTH","EPOCH":"2022-03-02T22:00:00.999936","INCLINATION":"53.2159","COUNTRY_CODE":"US","DECAY_DATE":null,"REF_FRAME":"TEME","LAUNCH_DATE":"2021-11-13","OBJECT_NAME":"STARLINK-3135","APOAPSIS":"541.162","TLE_LINE2":"2 49424  53.2159 338.2029 0002108  47.9938 172.7708 15.08853573  3592","OBJECT_ID":"2021-104S","FILE":"3341695","EPHEMERIS_TYPE":"0","NORAD_CAT_ID":"49424","PERIOD":"95.437","MEAN_MOTION_DDOT":"0.0000000000000","ECCENTRICITY":"0.00021080","TLE_LINE1":"1 49424U 21104S   22061.91667824 -.00022898  00000-0 -14246-2 0  9995","PERIAPSIS":"538.246","OBJECT_TYPE":"PAYLOAD","MEAN_ELEMENT_THEORY":"SGP4","ELEMENT_SET_NO":"999","RA_OF_ASC_NODE":"338.2029","CLASSIFICATION_TYPE":"U","GP_ID":"197661071","TIME_SYSTEM":"UTC","ARG_OF_PERICENTER":"47.9938","SITE":"AFETR"}];
